STARLINK-1329           
1 45531U 20025A   26068.32030923  .00126679  00000+0  17557-2 0  9998
2 45531  53.0500  83.1377 0001374 343.8694  16.2272 15.56178822325391
GXIBA-1                 
1 67684U 98067YA  26068.31453739  .00079693  00000+0  11905-2 0  9999
2 67684  51.6300  73.4032 0011013 174.4815 185.6299 15.54259962  4735
